CCSDS_OMM_VERS = 2.0
CREATION_DATE  = 
ORIGINATOR     = 

OBJECT_NAME    = SL-4 R/B
OBJECT_ID      = 2014-021B
CENTER_NAME    = EARTH
REF_FRAME      = TEME
TIME_SYSTEM    = UTC
MEAN_ELEMENT_THEORY = SGP/SGP4

EPOCH          = 2025-12-20T05:22:47.660736
MEAN_MOTION    = 15.36839426
ECCENTRICITY   = .01010984
INCLINATION    = 51.6090
RA_OF_ASC_NODE = 4.2159
ARG_OF_PERICENTER = 173.1987
MEAN_ANOMALY   = 187.0395

EPHEMERIS_TYPE = 0
CLASSIFICATION_TYPE = U
NORAD_CAT_ID   = 39679
ELEMENT_SET_NO = 999
REV_AT_EPOCH   = 64404
BSTAR          = .20097593E-3
MEAN_MOTION_DOT = .8285E-4
MEAN_MOTION_DDOT = 0

CCSDS_OMM_VERS = 2.0
CREATION_DATE  = 
ORIGINATOR     = 

OBJECT_NAME    = ALOS-2
OBJECT_ID      = 2014-029A
CENTER_NAME    = EARTH
REF_FRAME      = TEME
TIME_SYSTEM    = UTC
MEAN_ELEMENT_THEORY = SGP/SGP4

EPOCH          = 2025-12-20T06:00:25.684128
MEAN_MOTION    = 14.79471424
ECCENTRICITY   = .00014159
INCLINATION    = 97.9231
RA_OF_ASC_NODE = 88.9899
ARG_OF_PERICENTER = 99.7764
MEAN_ANOMALY   = 260.3607

EPHEMERIS_TYPE = 0
CLASSIFICATION_TYPE = U
NORAD_CAT_ID   = 39766
ELEMENT_SET_NO = 999
REV_AT_EPOCH   = 62512
BSTAR          = .29650605E-3
MEAN_MOTION_DOT = .2164E-4
MEAN_MOTION_DDOT = 0

CCSDS_OMM_VERS = 2.0
CREATION_DATE  = 
ORIGINATOR     = 

OBJECT_NAME    = YAOGAN-29
OBJECT_ID      = 2015-069A
CENTER_NAME    = EARTH
REF_FRAME      = TEME
TIME_SYSTEM    = UTC
MEAN_ELEMENT_THEORY = SGP/SGP4

EPOCH          = 2025-12-20T07:25:46.885152
MEAN_MOTION    = 14.82892835
ECCENTRICITY   = .00005053
INCLINATION    = 98.0212
RA_OF_ASC_NODE = 17.5061
ARG_OF_PERICENTER = 173.5724
MEAN_ANOMALY   = 186.5496

EPHEMERIS_TYPE = 0
CLASSIFICATION_TYPE = U
NORAD_CAT_ID   = 41038
ELEMENT_SET_NO = 999
REV_AT_EPOCH   = 54411
BSTAR          = .12603678E-3
MEAN_MOTION_DOT = .967E-5
MEAN_MOTION_DDOT = 0

CCSDS_OMM_VERS = 2.0
CREATION_DATE  = 
ORIGINATOR     = 

OBJECT_NAME    = ASTRO-H (HITOMI)
OBJECT_ID      = 2016-012A
CENTER_NAME    = EARTH
REF_FRAME      = TEME
TIME_SYSTEM    = UTC
MEAN_ELEMENT_THEORY = SGP/SGP4

EPOCH          = 2025-12-19T19:58:23.014848
MEAN_MOTION    = 15.09394006
ECCENTRICITY   = .0009709
INCLINATION    = 30.9977
RA_OF_ASC_NODE = 151.6460
ARG_OF_PERICENTER = 250.0410
MEAN_ANOMALY   = 109.9183

EPHEMERIS_TYPE = 0
CLASSIFICATION_TYPE = U
NORAD_CAT_ID   = 41337
ELEMENT_SET_NO = 999
REV_AT_EPOCH   = 54015
BSTAR          = .14253E-3
MEAN_MOTION_DOT = .243E-4
MEAN_MOTION_DDOT = 0

CCSDS_OMM_VERS = 2.0
CREATION_DATE  = 
ORIGINATOR     = 

OBJECT_NAME    = HXMT (HUIYAN)
OBJECT_ID      = 2017-034A
CENTER_NAME    = EARTH
REF_FRAME      = TEME
TIME_SYSTEM    = UTC
MEAN_ELEMENT_THEORY = SGP/SGP4

EPOCH          = 2025-12-20T07:12:45.408384
MEAN_MOTION    = 15.16315893
ECCENTRICITY   = .00310746
INCLINATION    = 43.0143
RA_OF_ASC_NODE = 97.6689
ARG_OF_PERICENTER = 93.0966
MEAN_ANOMALY   = 267.3438

EPHEMERIS_TYPE = 0
CLASSIFICATION_TYPE = U
NORAD_CAT_ID   = 42758
ELEMENT_SET_NO = 999
REV_AT_EPOCH   = 47048
BSTAR          = .23563237E-3
MEAN_MOTION_DOT = .4465E-4
MEAN_MOTION_DDOT = 0

CCSDS_OMM_VERS = 2.0
CREATION_DATE  = 
ORIGINATOR     = 

OBJECT_NAME    = CZ-2C R/B
OBJECT_ID      = 2018-054D
CENTER_NAME    = EARTH
REF_FRAME      = TEME
TIME_SYSTEM    = UTC
MEAN_ELEMENT_THEORY = SGP/SGP4

EPOCH          = 2025-12-19T16:58:48.579744
MEAN_MOTION    = 15.75499724
ECCENTRICITY   = .00151645
INCLINATION    = 35.1322
RA_OF_ASC_NODE = 133.5926
ARG_OF_PERICENTER = 214.6147
MEAN_ANOMALY   = 145.3600

EPHEMERIS_TYPE = 0
CLASSIFICATION_TYPE = U
NORAD_CAT_ID   = 43521
ELEMENT_SET_NO = 999
REV_AT_EPOCH   = 41615
BSTAR          = .54867322E-3
MEAN_MOTION_DOT = .88072E-3
MEAN_MOTION_DDOT = 0

CCSDS_OMM_VERS = 2.0
CREATION_DATE  = 
ORIGINATOR     = 

OBJECT_NAME    = SAOCOM 1A
OBJECT_ID      = 2018-076A
CENTER_NAME    = EARTH
REF_FRAME      = TEME
TIME_SYSTEM    = UTC
MEAN_ELEMENT_THEORY = SGP/SGP4

EPOCH          = 2025-12-19T21:29:30.366240
MEAN_MOTION    = 14.82168152
ECCENTRICITY   = .0001511
INCLINATION    = 97.8839
RA_OF_ASC_NODE = 178.2129
ARG_OF_PERICENTER = 80.1993
MEAN_ANOMALY   = 279.9391

EPHEMERIS_TYPE = 0
CLASSIFICATION_TYPE = U
NORAD_CAT_ID   = 43641
ELEMENT_SET_NO = 999
REV_AT_EPOCH   = 38954
BSTAR          = .13119E-3
MEAN_MOTION_DOT = .993E-5
MEAN_MOTION_DDOT = 0

CCSDS_OMM_VERS = 2.0
CREATION_DATE  = 
ORIGINATOR     = 

OBJECT_NAME    = H-2A R/B
OBJECT_ID      = 2018-084L
CENTER_NAME    = EARTH
REF_FRAME      = TEME
TIME_SYSTEM    = UTC
MEAN_ELEMENT_THEORY = SGP/SGP4

EPOCH          = 2025-12-19T12:37:28.216128
MEAN_MOTION    = 15.37604041
ECCENTRICITY   = .0026889
INCLINATION    = 98.8764
RA_OF_ASC_NODE = 189.0125
ARG_OF_PERICENTER = 302.7309
MEAN_ANOMALY   = 57.1340

EPHEMERIS_TYPE = 0
CLASSIFICATION_TYPE = U
NORAD_CAT_ID   = 43682
ELEMENT_SET_NO = 999
REV_AT_EPOCH   = 39344
BSTAR          = .37146E-3
MEAN_MOTION_DOT = .13775E-3
MEAN_MOTION_DDOT = 0

CCSDS_OMM_VERS = 2.0
CREATION_DATE  = 
ORIGINATOR     = 

OBJECT_NAME    = SAOCOM 1B
OBJECT_ID      = 2020-059A
CENTER_NAME    = EARTH
REF_FRAME      = TEME
TIME_SYSTEM    = UTC
MEAN_ELEMENT_THEORY = SGP/SGP4

EPOCH          = 2025-12-20T06:20:38.169024
MEAN_MOTION    = 14.82142806
ECCENTRICITY   = .00013842
INCLINATION    = 97.8832
RA_OF_ASC_NODE = 177.6763
ARG_OF_PERICENTER = 87.5354
MEAN_ANOMALY   = 272.6017

EPHEMERIS_TYPE = 0
CLASSIFICATION_TYPE = U
NORAD_CAT_ID   = 46265
ELEMENT_SET_NO = 999
REV_AT_EPOCH   = 28698
BSTAR          = .1153793E-4
MEAN_MOTION_DOT = .4E-6
MEAN_MOTION_DDOT = 0

CCSDS_OMM_VERS = 2.0
CREATION_DATE  = 
ORIGINATOR     = 

OBJECT_NAME    = CSS (TIANHE)
OBJECT_ID      = 2021-035A
CENTER_NAME    = EARTH
REF_FRAME      = TEME
TIME_SYSTEM    = UTC
MEAN_ELEMENT_THEORY = SGP/SGP4

EPOCH          = 2025-12-20T04:59:38.766912
MEAN_MOTION    = 15.59496428
ECCENTRICITY   = .00077465
INCLINATION    = 41.4685
RA_OF_ASC_NODE = 331.3573
ARG_OF_PERICENTER = 96.7908
MEAN_ANOMALY   = 263.3812

EPHEMERIS_TYPE = 0
CLASSIFICATION_TYPE = U
NORAD_CAT_ID   = 48274
ELEMENT_SET_NO = 999
REV_AT_EPOCH   = 26519
BSTAR          = .22776024E-3
MEAN_MOTION_DOT = .18311E-3
MEAN_MOTION_DDOT = 0

CCSDS_OMM_VERS = 2.0
CREATION_DATE  = 
ORIGINATOR     = 

OBJECT_NAME    = COSMOS 2550
OBJECT_ID      = 2021-056A
CENTER_NAME    = EARTH
REF_FRAME      = TEME
TIME_SYSTEM    = UTC
MEAN_ELEMENT_THEORY = SGP/SGP4

EPOCH          = 2025-12-19T21:34:23.418624
MEAN_MOTION    = 15.33838622
ECCENTRICITY   = .0008368
INCLINATION    = 67.1455
RA_OF_ASC_NODE = 282.2793
ARG_OF_PERICENTER = 269.6426
MEAN_ANOMALY   = 90.3770

EPHEMERIS_TYPE = 0
CLASSIFICATION_TYPE = U
NORAD_CAT_ID   = 48865
ELEMENT_SET_NO = 999
REV_AT_EPOCH   = 25122
BSTAR          = .8251269E-5
MEAN_MOTION_DOT = .8E-6
MEAN_MOTION_DDOT = 0

CCSDS_OMM_VERS = 2.0
CREATION_DATE  = 
ORIGINATOR     = 

OBJECT_NAME    = CZ-2C R/B
OBJECT_ID      = 2022-058K
CENTER_NAME    = EARTH
REF_FRAME      = TEME
TIME_SYSTEM    = UTC
MEAN_ELEMENT_THEORY = SGP/SGP4

EPOCH          = 2025-12-20T05:27:10.003968
MEAN_MOTION    = 15.48848735
ECCENTRICITY   = .00449654
INCLINATION    = 50.1915
RA_OF_ASC_NODE = 5.3549
ARG_OF_PERICENTER = 229.4522
MEAN_ANOMALY   = 130.2527

EPHEMERIS_TYPE = 0
CLASSIFICATION_TYPE = U
NORAD_CAT_ID   = 52794
ELEMENT_SET_NO = 999
REV_AT_EPOCH   = 19779
BSTAR          = .34392381E-3
MEAN_MOTION_DOT = .19224E-3
MEAN_MOTION_DDOT = 0

