SL-4 R/B                
1 39679U 14021B   25354.22416274  .00008285  00000+0  20098-3 0  9993
2 39679  51.6090   4.2159 0101098 173.1987 187.0395 15.36839426644041
ALOS-2                  
1 39766U 14029A   25354.25029727  .00002164  00000+0  29651-3 0  9998
2 39766  97.9231  88.9899 0001415  99.7764 260.3607 14.79471424625121
YAOGAN-29               
1 41038U 15069A   25354.30957043  .00000967  00000+0  12604-3 0  9994
2 41038  98.0212  17.5061 0000505 173.5724 186.5496 14.82892835544113
ASTRO-H (HITOMI)        
1 41337U 16012A   25353.83221082  .00002430  00000+0  14253-3 0  9998
2 41337  30.9977 151.6460 0009709 250.0410 109.9183 15.09394006540158
HXMT (HUIYAN)           
1 42758U 17034A   25354.30052556  .00004465  00000+0  23563-3 0  9996
2 42758  43.0143  97.6689 0031074  93.0966 267.3438 15.16315893470484
CZ-2C R/B               
1 43521U 18054D   25353.70750671  .00088072  00000+0  54867-3 0  9991
2 43521  35.1322 133.5926 0015164 214.6147 145.3600 15.75499724416153
SAOCOM 1A               
1 43641U 18076A   25353.89549035  .00000993  00000+0  13119-3 0  9999
2 43641  97.8839 178.2129 0001511  80.1993 279.9391 14.82168152389549
H-2A R/B                
1 43682U 18084L   25353.52602102  .00013775  00000+0  37146-3 0  9996
2 43682  98.8764 189.0125 0026889 302.7309  57.1340 15.37604041393444
SAOCOM 1B               
1 46265U 20059A   25354.26433066  .00000040  00000+0  11538-4 0  9993
2 46265  97.8832 177.6763 0001384  87.5354 272.6017 14.82142806286981
CSS (TIANHE)            
1 48274U 21035A   25354.20808758  .00018311  00000+0  22776-3 0  9993
2 48274  41.4685 331.3573 0007746  96.7908 263.3812 15.59496428265194
COSMOS 2550             
1 48865U 21056A   25353.89888216  .00000080  00000+0  82513-5 0  9994
2 48865  67.1455 282.2793 0008368 269.6426  90.3770 15.33838622251223
CZ-2C R/B               
1 52794U 22058K   25354.22719912  .00019224  00000+0  34392-3 0  9997
2 52794  50.1915   5.3549 0044965 229.4522 130.2527 15.48848735197796
